ONEWEB-0319             
1 49105U 21075AG  23059.52672942  .00000059  00000+0  11954-3 0  9996
2 49105  87.9072 245.1654 0002375  88.8331 271.3073 13.17849713 74962
ONEWEB-0319             
1 49105U 21075AG  23059.90635333  .00000023  00000+0  26694-4 0  9990
2 49105  87.9073 245.0898 0002361  88.6210 271.5192 13.17849071 76009
ONEWEB-0319             
1 49105U 21075AG  23060.89337302  .00000082  00000+0  17793-3 0  9999
2 49105  87.9076 244.8931 0002351  87.9934 272.1467 13.17849744 75144
ONEWEB-0319             
1 49105U 21075AG  23061.04522328 -.00000026  00000+0 -99087-4 0  9998
2 49105  87.9076 244.8628 0002340  87.8730 272.2669 13.17848914 76153
ONEWEB-0319             
1 49105U 21075AG  23061.80446850  .00000147  00000+0  34436-3 0  9995
2 49105  87.9076 244.7116 0002329  87.1642 272.9756 13.17849894 75269
ONEWEB-0319             
1 49105U 21075AG  23062.48779124  .00000042  00000+0  73795-4 0  9999
2 49105  87.9076 244.5754 0002281  86.3203 273.8189 13.17848851 75358
ONEWEB-0319             
1 49105U 21075AG  23062.48779124  .00000042  00000+0  73795-4 0  9999
2 49105  87.9076 244.5754 0002281  86.3203 273.8189 13.17848851 76348
ONEWEB-0319             
1 49105U 21075AG  23062.86741340  .00000075  00000+0  15857-3 0  9990
2 49105  87.9077 244.4998 0002266  86.1224 274.0167 13.17850018 75405
